2024-166B               
1 61180U 24166B   26067.67341263  .00038147  00000+0  25198-3 0  9998
2 61180  96.6921 322.5475 0002182 351.2198   8.9031 15.75502359 84916
STARLINK-36419          
1 67584U 26016Z   26068.73834307  .00138768  00000+0  92013-3 0  9992
2 67584  97.2830 129.2687 0001502  86.9662 273.1775 15.75090504  6814
